SL-16 R/B               
1 24298U 96051B   26187.71916713  .00000141  00000+0  10272-3 0  9995
2 24298  70.7653 283.3134 0017103 309.2904  50.6699 14.12453146538459
ORBVIEW 2 (SEASTAR)     
1 24883U 97037A   26187.95388080  .00000205  00000+0  87563-4 0  9995
2 24883  98.8707 355.5223 0003284  77.0577 283.0974 14.35563934525582
SL-16 R/B               
1 25400U 98043G   26187.93822213  .00000040  00000+0  35591-4 0  9999
2 25400  98.8374 142.2683 0010465  34.3330 325.8524 14.26071838455980
SL-16 R/B               
1 25407U 98045B   26187.73045329 -.00000061  00000+0 -67491-5 0  9991
2 25407  71.0126 291.2294 0008600 217.9363 142.1156 14.16207813443959
ISS (ZARYA)             
1 25544U 98067A   26188.18576601  .00005994  00000+0  11712-3 0  9990
2 25544  51.6305 201.1096 0006690 265.7165  94.3058 15.48929707574854
CZ-4B R/B               
1 25732U 99025C   26188.09616242  .00000028  00000+0  34226-4 0  9999
2 25732  98.6473 229.4327 0037110   3.2169  23.0322 14.18286752405094
OKEAN-O                 
1 25860U 99039A   26188.15049610  .00000503  00000+0  72543-4 0  9994
2 25860  97.9305 246.7183 0001047  74.8049 285.3279 14.80491100452062
SL-16 R/B               
1 25861U 99039B   26188.08621469  .00000428  00000+0  60936-4 0  9994
2 25861  97.9826 246.8916 0013762 226.1050 133.9027 14.81865187454542
DELTA 2 R/B             
1 25876U 99041E   26187.99421648  .00001209  00000+0  23261-3 0  9996
2 25876  51.7610 184.6656 0501202 340.5445  17.6943 14.12061026379889
HELIOS 1B               
1 25977U 99064A   26188.15004325  .00001269  00000+0  14444-3 0  9990
2 25977  98.1596  93.8663 0002297  64.2758 295.8694 14.88060938703029
TERRA                   
1 25994U 99068A   26188.15577171  .00000321  00000+0  74228-4 0  9992
2 25994  97.9444 236.9092 0003025 138.8672 306.0844 14.61119280412526
SL-16 R/B               
1 26070U 00006B   26188.05930359 -.00000204  00000+0 -79334-4 0  9997
2 26070  71.0005 206.8406 0016834 351.6066   8.4772 14.15840447365454
TITAN 4B R/B            
1 26474U 00047B   26188.12730594  .00002134  00000+0  13520-3 0  9993
2 26474  67.9887  64.4421 0046010 266.7747  92.8138 15.10307510410943
ENVISAT                 
1 27386U 02009A   26187.71868567  .00000092  00000+0  43759-4 0  9991
2 27386  98.3842 138.6024 0001373  84.7677 342.6239 14.39069475276292
IDEFIX & ARIANE 42P R/B 
1 27422U 02021B   26187.84616014  .00000182  00000+0  85745-4 0  9999
2 27422  98.5942 125.1165 0011365 191.1855 168.9077 14.31091184261068
AQUA                    
1 27424U 02022A   26188.17848602  .00000693  00000+0  14750-3 0  9993
2 27424  98.4289 157.8622 0000724  96.7867 352.6333 14.62188941286193
CZ-4B R/B               
1 27432U 02024C   26188.10969660  .00000021  00000+0  33450-4 0  9999
2 27432  98.8689 240.7995 0050855  44.7225 343.4236 14.14567441246128
MIDORI II (ADEOS-II)    
1 27597U 02056A   26187.87844186  .00000215  00000+0  10210-3 0  9997
2 27597  98.7888 147.3066 0001810  51.3401 308.7942 14.29360143227323
H-2A R/B                
1 27601U 02056E   26187.90107822  .00000195  00000+0  82624-4 0  9992
2 27601  98.3322 143.8581 0070363 165.4645 260.2640 14.33830862231199
CZ-4B R/B               
1 28059U 03049C   26187.96639965  .00000218  00000+0  61695-4 0  9998
2 28059  98.6904 187.6009 0047206 226.7547 132.9704 14.55112368203945
CZ-2C R/B               
1 28222U 04012C   26187.71803847  .00106998  00000+0  48784-3 0  9991
2 28222  97.7057 265.7145 0011228 217.1216 142.9277 15.83414277222984
SL-16 R/B               
1 28353U 04021B   26187.88994303  .00000286  00000+0  17335-3 0  9993
2 28353  71.0020 342.3379 0006526 232.1672 127.8860 14.14613502139693
CZ-4B R/B               
1 28415U 04035C   26188.07017770  .00005280  00000+0  17717-3 0  9996
2 28415  97.3361 220.9219 0028859 263.1254  96.6704 15.30915636198167
CZ-2C R/B               
1 28480U 04046B   26188.17488490  .00000092  00000+0  48941-4 0  9992
2 28480  98.1927  95.7050 0139665 161.0143 199.6320 14.27031495125545
ARIANE 5 R/B            
1 28499U 04049H   26187.93389964  .00000496  00000+0  61266-4 0  9997
2 28499  98.2736   0.9515 0083060 325.3734  34.2088 14.85472418163495
CZ-2D R/B               
1 28738U 05024B   26188.03305231  .00051770  00000+0  39702-3 0  9994
2 28738  97.3477 208.4827 0000991 228.1817 131.9361 15.71950618158456
ALOS (DAICHI)           
1 28931U 06002A   26187.89738532  .00000954  00000+0  16713-3 0  9998
2 28931  98.1331 143.4045 0000802  75.3146 284.8148 14.70090782 90997
H-2A R/B                
1 28932U 06002B   26187.95912014  .00005960  00000+0  28470-3 0  9990
2 28932  98.2589 345.5827 0050251 194.0206 165.9634 15.18356471112522
RESURS-DK 1             
1 29228U 06021A   26187.66753135  .00001870  00000+0  11088-3 0  9998
2 29228  69.9331 289.1246 0006724 280.6462  79.3947 15.13298980105523
CZ-4B R/B               
1 29507U 06046C   26188.09611462  .00002980  00000+0  14842-3 0  9993
2 29507  97.5440 232.6420 0031798 210.5388 149.3995 15.17938342 78152
CZ-2C R/B               
1 31114U 07010B   26187.92636897  .00000063  00000+0  48214-4 0  9993
2 31114  98.4113 295.3134 0057975 308.2814  51.3157 14.20280440996645
