OBJECT_NAME,OBJECT_ID,EPOCH,MEAN_MOTION,ECCENTRICITY,INCLINATION,RA_OF_ASC_NODE,ARG_OF_PERICENTER,MEAN_ANOMALY,EPHEMERIS_TYPE,CLASSIFICATION_TYPE,NORAD_CAT_ID,ELEMENT_SET_NO,REV_AT_EPOCH,BSTAR,MEAN_MOTION_DOT,MEAN_MOTION_DDOT
SL-16 R/B,1996-051B,2026-07-06T17:15:36.040032,14.12453146,.0017103,70.7653,283.3134,309.2904,50.6699,0,U,24298,999,53845,.10272E-3,.141E-5,0
ORBVIEW 2 (SEASTAR),1997-037A,2026-07-06T22:53:35.301120,14.35563934,.0003284,98.8707,355.5223,77.0577,283.0974,0,U,24883,999,52558,.87563E-4,.205E-5,0
SL-16 R/B,1998-043G,2026-07-06T22:31:02.392032,14.26071838,.0010465,98.8374,142.2683,34.3330,325.8524,0,U,25400,999,45598,.35591E-4,.4E-6,0
SL-16 R/B,1998-045B,2026-07-06T17:31:51.164256,14.16207813,.00086,71.0126,291.2294,217.9363,142.1156,0,U,25407,999,44395,-.67491E-5,-.61E-6,0
ISS (ZARYA),1998-067A,2026-07-07T04:27:30.183264,15.48929707,.000669,51.6305,201.1096,265.7165,94.3058,0,U,25544,999,57485,.11712E-3,.5994E-4,0
CZ-4B R/B,1999-025C,2026-07-07T02:18:28.433088,14.18286752,.003711,98.6473,229.4327,3.2169,23.0322,0,U,25732,999,40509,.34226E-4,.28E-6,0
OKEAN-O,1999-039A,2026-07-07T03:36:42.863040,14.80491100,.0001047,97.9305,246.7183,74.8049,285.3279,0,U,25860,999,45206,.72543E-4,.503E-5,0
SL-16 R/B,1999-039B,2026-07-07T02:04:08.949216,14.81865187,.0013762,97.9826,246.8916,226.1050,133.9027,0,U,25861,999,45454,.60936E-4,.428E-5,0
DELTA 2 R/B,1999-041E,2026-07-06T23:51:40.303872,14.12061026,.0501202,51.7610,184.6656,340.5445,17.6943,0,U,25876,999,37988,.23261E-3,.1209E-4,0
HELIOS 1B,1999-064A,2026-07-07T03:36:03.736800,14.88060938,.0002297,98.1596,93.8663,64.2758,295.8694,0,U,25977,999,70302,.14444E-3,.1269E-4,0
TERRA,1999-068A,2026-07-07T03:44:18.675744,14.61119280,.0003025,97.9444,236.9092,138.8672,306.0844,0,U,25994,999,41252,.74228E-4,.321E-5,0
SL-16 R/B,2000-006B,2026-07-07T01:25:23.830176,14.15840447,.0016834,71.0005,206.8406,351.6066,8.4772,0,U,26070,999,36545,-.79334E-4,-.204E-5,0
TITAN 4B R/B,2000-047B,2026-07-07T03:03:19.233216,15.10307510,.004601,67.9887,64.4421,266.7747,92.8138,0,U,26474,999,41094,.1352E-3,.2134E-4,0
ENVISAT,2002-009A,2026-07-06T17:14:54.441888,14.39069475,.0001373,98.3842,138.6024,84.7677,342.6239,0,U,27386,999,27629,.43759E-4,.92E-6,0
IDEFIX & ARIANE 42P R/B,2002-021B,2026-07-06T20:18:28.236096,14.31091184,.0011365,98.5942,125.1165,191.1855,168.9077,0,U,27422,999,26106,.85745E-4,.182E-5,0
AQUA,2002-022A,2026-07-07T04:17:01.192128,14.62188941,.0000724,98.4289,157.8622,96.7867,352.6333,0,U,27424,999,28619,.1475E-3,.693E-5,0
CZ-4B R/B,2002-024C,2026-07-07T02:37:57.786240,14.14567441,.0050855,98.8689,240.7995,44.7225,343.4236,0,U,27432,999,24612,.3345E-4,.21E-6,0
MIDORI II (ADEOS-II),2002-056A,2026-07-06T21:04:57.376704,14.29360143,.000181,98.7888,147.3066,51.3401,308.7942,0,U,27597,999,22732,.1021E-3,.215E-5,0
H-2A R/B,2002-056E,2026-07-06T21:37:33.158208,14.33830862,.0070363,98.3322,143.8581,165.4645,260.2640,0,U,27601,999,23119,.82624E-4,.195E-5,0
CZ-4B R/B,2003-049C,2026-07-06T23:11:36.929760,14.55112368,.0047206,98.6904,187.6009,226.7547,132.9704,0,U,28059,999,20394,.61695E-4,.218E-5,0
CZ-2C R/B,2004-012C,2026-07-06T17:13:58.523808,15.83414277,.0011228,97.7057,265.7145,217.1216,142.9277,0,U,28222,999,22298,.48784E-3,.106998E-2,0
SL-16 R/B,2004-021B,2026-07-06T21:21:31.077792,14.14613502,.0006526,71.0020,342.3379,232.1672,127.8860,0,U,28353,999,13969,.17335E-3,.286E-5,0
CZ-4B R/B,2004-035C,2026-07-07T01:41:03.353280,15.30915636,.0028859,97.3361,220.9219,263.1254,96.6704,0,U,28415,999,19816,.17717E-3,.528E-4,0
CZ-2C R/B,2004-046B,2026-07-07T04:11:50.055360,14.27031495,.0139665,98.1927,95.7050,161.0143,199.6320,0,U,28480,999,12554,.48941E-4,.92E-6,0
ARIANE 5 R/B,2004-049H,2026-07-06T22:24:48.928896,14.85472418,.008306,98.2736,0.9515,325.3734,34.2088,0,U,28499,999,16349,.61266E-4,.496E-5,0
CZ-2D R/B,2005-024B,2026-07-07T00:47:35.719584,15.71950618,.0000991,97.3477,208.4827,228.1817,131.9361,0,U,28738,999,15845,.39702E-3,.5177E-3,0
ALOS (DAICHI),2006-002A,2026-07-06T21:32:14.091648,14.70090782,.0000802,98.1331,143.4045,75.3146,284.8148,0,U,28931,999,9099,.16713E-3,.954E-5,0
H-2A R/B,2006-002B,2026-07-06T23:01:07.980096,15.18356471,.0050251,98.2589,345.5827,194.0206,165.9634,0,U,28932,999,11252,.2847E-3,.596E-4,0
RESURS-DK 1,2006-021A,2026-07-06T16:01:14.708640,15.13298980,.0006724,69.9331,289.1246,280.6462,79.3947,0,U,29228,999,10552,.11088E-3,.187E-4,0
CZ-4B R/B,2006-046C,2026-07-07T02:18:24.303168,15.17938342,.0031798,97.5440,232.6420,210.5388,149.3995,0,U,29507,999,7815,.14842E-3,.298E-4,0
CZ-2C R/B,2007-010B,2026-07-06T22:13:58.279008,14.20280440,.0057975,98.4113,295.3134,308.2814,51.3157,0,U,31114,999,99664,.48214E-4,.63E-6,0
